     2.100          NAVIGATION                              RINEX VERSION / TYPE
fic2rin                                 08/05/2012 00:12:58 PGM / RUN BY / DATE
                                                            END OF HEADER
12 12  8  4 22  0  0.0  .836728140712D-04  .204636307899D-11  .000000000000D+00
     .370000000000D+02  .317187500000D+02  .454161774804D-08  .759896108769D+00
     .159814953804D-05  .403396610636D-02  .332668423653D-05  .515374024582D+04
     .597600000000D+06  .875443220139D-07  .185333209170D+01  .931322574615D-07
     .980354105078D+00  .330625000000D+03  .128981778552D+00 -.825462955274D-08
     .275368613065D-09  .100000000000D+01  .169900000000D+04  .000000000000D+00
     .240000000000D+01  .000000000000D+00 -.121071934700D-07  .370000000000D+02
     .590406000000D+06  .400000000000D+01
13 12  8  4 22  0  0.0  .190119259059D-03 -.250111042988D-11  .000000000000D+00
     .620000000000D+02 -.506562500000D+02  .386837541908D-08 -.292241755598D+01
    -.256299972534D-05  .488736643456D-02  .866502523422D-05  .515363498306D+04
     .597600000000D+06  .670552253723D-07 -.172907062753D+00 -.409781932831D-07
     .985201179847D+00  .226500000000D+03  .206058704754D+01 -.767996275842D-08
    -.550380068396D-09  .100000000000D+01  .169900000000D+04  .000000000000D+00
     .240000000000D+01  .000000000000D+00 -.111758708954D-07  .620000000000D+02
     .590406000000D+06  .400000000000D+01
14 12  8  4 22  0  0.0  .209050718695D-03  .113686837722D-11  .000000000000D+00
     .580000000000D+02 -.555000000000D+02  .397909431668D-08 -.266644765046D+01
    -.278651714325D-05  .665544171352D-02  .888481736183D-05  .515362094879D+04
     .597600000000D+06  .484287738800D-07 -.200070257935D+00 -.298023223877D-07
     .977986579901D+00  .216375000000D+03 -.206516282415D+01 -.772460747519D-08
    -.485734518507D-09  .100000000000D+01  .169900000000D+04  .000000000000D+00
     .240000000000D+01  .000000000000D+00 -.931322574615D-08  .580000000000D+02
     .590406000000D+06  .400000000000D+01
15 12  8  4 22  0  0.0 -.933054834604D-04 -.454747350886D-12  .000000000000D+00
     .250000000000D+02 -.533125000000D+02  .488091759552D-08 -.311498945321D+01
    -.275112688541D-05  .449178158306D-02  .751204788685D-05  .515360229492D+04
     .597600000000D+06 -.540167093277D-07 -.290107191055D+00  .130385160446D-07
     .944695117018D+00  .226937500000D+03  .386983525131D-01 -.825105797540D-08
    -.480019994760D-09  .100000000000D+01  .169900000000D+04  .000000000000D+00
     .240000000000D+01  .000000000000D+00 -.102445483208D-07  .250000000000D+02
     .590406000000D+06  .400000000000D+01
16 12  8  4 22  0  0.0 -.242906622589D-03 -.102318153949D-11  .000000000000D+00
     .500000000000D+02  .290000000000D+02  .449125850752D-08 -.147325594348D+01
     .120140612125D-05  .656123843510D-02  .332109630108D-05  .515371462822D+04
     .597600000000D+06  .111758708954D-07  .187153837491D+01 -.119209289551D-06
     .981162595532D+00  .324468750000D+03  .254846210339D-01 -.826927301984D-08
     .406445501515D-09  .100000000000D+01  .169900000000D+04  .000000000000D+00
     .240000000000D+01  .000000000000D+00 -.977888703346D-08  .500000000000D+02
     .590406000000D+06  .400000000000D+01
17 12  8  4 22  0  0.0  .107726082206D-03 -.318323145621D-11  .000000000000D+00
     .690000000000D+02 -.978437500000D+02  .461947813409D-08 -.239346600750D+01
    -.499933958054D-05  .745624257252D-02  .736862421036D-05  .515372296143D+04
     .597600000000D+06  .147148966789D-06  .291154997790D+01 -.931322574615D-07
     .963741331718D+00  .237031250000D+03 -.229644256238D+01 -.808676541767D-08
    -.271439877989D-09  .100000000000D+01  .169900000000D+04  .000000000000D+00
     .240000000000D+01  .000000000000D+00 -.107102096081D-07  .690000000000D+02
     .590406000000D+06  .400000000000D+01
18 12  8  4 22  0  0.0  .208529643714D-03  .181898940355D-11  .000000000000D+00
     .360000000000D+02  .417812500000D+02  .575095383603D-08 -.930379103098D+00
     .225752592087D-05  .136218818370D-01  .381469726562D-05  .515370944023D+04
     .597600000000D+06  .130385160446D-06 -.130666377435D+01  .288709998131D-06
     .928735312754D+00  .290093750000D+03 -.215588675384D+01 -.894644408388D-08
     .650027076237D-10  .100000000000D+01  .169900000000D+04  .000000000000D+00
     .240000000000D+01  .000000000000D+00 -.107102096081D-07  .360000000000D+02
     .590406000000D+06  .400000000000D+01
19 12  8  4 22  0  0.0 -.291256234050D-03 -.363797880709D-11  .000000000000D+00
     .200000000000D+02 -.100093750000D+03  .465876548485D-08  .306024771700D+01
    -.513531267643D-05  .852967496030D-02  .833161175251D-05  .515361017799D+04
     .597600000000D+06 -.968575477600D-07  .296436399332D+01 -.521540641785D-07
     .961114087380D+00  .220093750000D+03  .218492678514D+00 -.802604860285D-08
    -.365015204348D-09  .100000000000D+01  .169900000000D+04  .000000000000D+00
     .240000000000D+01  .000000000000D+00 -.149011611938D-07  .200000000000D+02
     .590406000000D+06  .400000000000D+01
20 12  8  4 22  0  0.0  .657183118165D-04  .682121026330D-12  .000000000000D+00
     .470000000000D+02  .475937500000D+02  .570416617285D-08 -.525952667354D+00
     .247545540333D-05  .492610293441D-02  .457465648651D-05  .515365294456D+04
     .597600000000D+06 -.745058059692D-07 -.136037081933D+01  .931322574615D-08
     .929255671252D+00  .272312500000D+03  .128454998429D+01 -.885394023072D-08
     .153220667970D-09  .100000000000D+01  .169900000000D+04  .000000000000D+00
     .240000000000D+01  .000000000000D+00 -.791624188423D-08  .470000000000D+02
     .590406000000D+06  .400000000000D+01
22 12  8  4 22  0  0.0  .146223232150D-03  .568434188608D-12  .000000000000D+00
     .590000000000D+02  .433750000000D+02  .566452166435D-08 -.171449591996D+01
     .218488276005D-05  .631620350759D-02  .404939055443D-05  .515366890907D+04
     .597600000000D+06  .191852450371D-06 -.130343018704D+01 -.204890966415D-07
     .926462997211D+00  .284375000000D+03 -.201054028504D+01 -.870000524728D-08
     .971469037013D-10  .100000000000D+01  .169900000000D+04  .000000000000D+00
     .340000000000D+01  .000000000000D+00 -.172294676304D-07  .590000000000D+02
     .590406000000D+06  .400000000000D+01
23 12  8  4 22  0  0.0  .178405083716D-03 -.386535248253D-11  .000000000000D+00
     .970000000000D+02 -.570000000000D+02  .453447459335D-08  .265599887073D+01
    -.299885869026D-05  .818202493247D-02  .785849988461D-05  .515360179329D+04
     .597600000000D+06 -.782310962677D-07 -.253384952672D+00 -.149011611938D-07
     .959510351732D+00  .229250000000D+03 -.296131642336D+01 -.806712174229D-08
    -.562523431359D-09  .100000000000D+01  .169900000000D+04  .000000000000D+00
     .240000000000D+01  .000000000000D+00 -.200234353542D-07  .970000000000D+02
     .590406000000D+06  .400000000000D+01
25 12  8  4 22  0  0.0  .388822518289D-04  .909494701773D-12  .000000000000D+00
     .680000000000D+02  .373750000000D+02  .478127058768D-08 -.460205186308D+00
     .204332172871D-05  .182402855717D-02  .326894223690D-05  .515367322159D+04
     .597600000000D+06  .689178705215D-07  .181844273899D+01 -.372529029846D-08
     .969200577723D+00  .324406250000D+03  .776125926749D+00 -.841213611352D-08
     .346443002170D-09  .100000000000D+01  .169900000000D+04  .000000000000D+00
     .240000000000D+01  .000000000000D+00  .512227416039D-08  .680000000000D+02
     .590406000000D+06  .400000000000D+01
26 12  8  4 22  0  0.0 -.325200613588D-03  .120508047985D-10  .000000000000D+00
     .840000000000D+02 -.518437500000D+02  .378015745873D-08  .252006042956D+01
    -.280514359474D-05  .207729736576D-01  .840984284878D-05  .515366712761D+04
     .597600000000D+06  .165775418282D-06 -.179207568577D+00 -.203028321266D-06
     .982717573583D+00  .224343750000D+03  .120355118581D+01 -.745102465080D-08
    -.485734518507D-09  .100000000000D+01  .169900000000D+04  .000000000000D+00
     .240000000000D+01  .000000000000D+00 -.605359673500D-08  .840000000000D+02
     .590406000000D+06  .400000000000D+01
27 12  8  4 22  0  0.0  .416608992964D-03  .409272615798D-11  .000000000000D+00
     .400000000000D+01  .659375000000D+02  .361907932061D-08 -.292470380289D+01
     .332482159138D-05  .217322271783D-01  .111032277346D-04  .515370608902D+04
     .597600000000D+06  .856816768646D-07  .744004473561D+00  .264495611191D-06
     .982199529421D+00  .168375000000D+03 -.105146160386D+01 -.727744599198D-08
     .229652423088D-09  .100000000000D+01  .169900000000D+04  .000000000000D+00
     .240000000000D+01  .000000000000D+00 -.419095158577D-08  .400000000000D+01
     .590406000000D+06  .400000000000D+01
28 12  8  4 22  0  0.0  .171924941242D-03  .386535248253D-11  .000000000000D+00
     .700000000000D+02  .283125000000D+02  .436589614281D-08 -.177491521344D+01
     .181980431080D-05  .179523084080D-01  .286288559437D-05  .515362925148D+04
     .597600000000D+06  .292435288429D-06  .187818593757D+01  .195577740669D-06
     .979541910515D+00  .328406250000D+03 -.182352869658D+01 -.802997733793D-08
     .365729519817D-09  .100000000000D+01  .169900000000D+04  .000000000000D+00
     .340000000000D+01  .000000000000D+00 -.107102096081D-07  .700000000000D+02
     .590406000000D+06  .400000000000D+01
29 12  8  4 22  0  0.0  .340758822858D-03  .397903932026D-11  .000000000000D+00
     .320000000000D+02 -.896562500000D+02  .470912472538D-08  .469101107761D+00
    -.462681055069D-05  .200384983327D-02  .773742794991D-05  .515354248619D+04
     .597600000000D+06 -.633299350739D-07  .292014932783D+01  .316649675369D-07
     .964304960407D+00  .234062500000D+03 -.111286751855D+01 -.819676999980D-08
    -.306084178206D-09  .100000000000D+01  .169900000000D+04  .000000000000D+00
     .240000000000D+01  .000000000000D+00 -.977888703346D-08  .320000000000D+02
     .590406000000D+06  .400000000000D+01
